{
  "norad_id": 63397,
  "name": "TJS-16",
  "history": [
    {
      "epoch": "2026-03-28T18:31:59.892672Z",
      "apogee_km": 35808.06875893673,
      "perigee_km": 35765.2461936666,
      "latitude_deg": -0.023133583491272043,
      "longitude_deg": 160.5466190526468,
      "height_km": 35783.46509502856,
      "semi_major_axis_km": 42164.794476301664,
      "eccentricity": 0.0005078,
      "inclination_deg": 0.8913,
      "raan_deg": 81.7589,
      "arg_perigee_deg": 265.7162,
      "mean_anomaly_deg": 277.2944,
      "mean_motion_rev_day": 1.00271562
    },
    {
      "epoch": "2026-03-30T16:36:06.220224Z",
      "apogee_km": 35807.90921459141,
      "perigee_km": 35765.297527972194,
      "latitude_deg": 0.3859116245199851,
      "longitude_deg": 160.55058473808512,
      "height_km": 35794.002758895454,
      "semi_major_axis_km": 42164.740371281805,
      "eccentricity": 0.0005053,
      "inclination_deg": 0.8964,
      "raan_deg": 81.752,
      "arg_perigee_deg": 267.6195,
      "mean_anomaly_deg": 248.3162,
      "mean_motion_rev_day": 1.00271755
    },
    {
      "epoch": "2026-03-31T16:51:07.735104Z",
      "apogee_km": 35807.82269716244,
      "perigee_km": 35765.329099503506,
      "latitude_deg": 0.3182295845979914,
      "longitude_deg": 160.5467307699498,
      "height_km": 35792.678645623455,
      "semi_major_axis_km": 42164.712898332975,
      "eccentricity": 0.0005039,
      "inclination_deg": 0.8989,
      "raan_deg": 81.7486,
      "arg_perigee_deg": 268.6861,
      "mean_anomaly_deg": 252.0056,
      "mean_motion_rev_day": 1.00271853
    }
  ]
}